[{"OBJECT_NAME":"COSMOS 2251 DEB","OBJECT_ID":"1993-036ALG","EPOCH":"2026-03-28T06:57:55.478016","MEAN_MOTION":14.30196864,"ECCENTRICITY":0.0081948,"INCLINATION":74.0348,"RA_OF_ASC_NODE":76.8365,"ARG_OF_PERICENTER":87.4892,"MEAN_ANOMALY":273.5636,"EPHEMERIS_TYPE":0,"CLASSIFICATION_TYPE":"U","NORAD_CAT_ID":35462,"ELEMENT_SET_NO":999,"REV_AT_EPOCH":67889,"BSTAR":0.0013265,"MEAN_MOTION_DOT":3.54e-5,"MEAN_MOTION_DDOT":0},{"OBJECT_NAME":"COSMOS 2251 DEB","OBJECT_ID":"1993-036ALK","EPOCH":"2026-03-24T18:41:57.543072","MEAN_MOTION":14.44656146,"ECCENTRICITY":0.00636751,"INCLINATION":73.9992,"RA_OF_ASC_NODE":6.6601,"ARG_OF_PERICENTER":144.7788,"MEAN_ANOMALY":215.7603,"EPHEMERIS_TYPE":0,"CLASSIFICATION_TYPE":"U","NORAD_CAT_ID":35465,"ELEMENT_SET_NO":999,"REV_AT_EPOCH":88715,"BSTAR":0.00034868651,"MEAN_MOTION_DOT":1.211e-5,"MEAN_MOTION_DDOT":0},{"OBJECT_NAME":"COSMOS 2251 DEB","OBJECT_ID":"1993-036ALP","EPOCH":"2026-03-27T12:53:28.813920","MEAN_MOTION":14.4992136,"ECCENTRICITY":0.0077892,"INCLINATION":74.0167,"RA_OF_ASC_NODE":186.8683,"ARG_OF_PERICENTER":315.0139,"MEAN_ANOMALY":44.4727,"EPHEMERIS_TYPE":0,"CLASSIFICATION_TYPE":"U","NORAD_CAT_ID":35469,"ELEMENT_SET_NO":999,"REV_AT_EPOCH":89630,"BSTAR":8.0453e-5,"MEAN_MOTION_DOT":2.93e-6,"MEAN_MOTION_DDOT":0},{"OBJECT_NAME":"COSMOS 2251 DEB","OBJECT_ID":"1993-036ALV","EPOCH":"2026-03-28T08:41:57.462432","MEAN_MOTION":14.72444805,"ECCENTRICITY":0.00172904,"INCLINATION":74.0227,"RA_OF_ASC_NODE":320.2905,"ARG_OF_PERICENTER":9.8977,"MEAN_ANOMALY":350.2532,"EPHEMERIS_TYPE":0,"CLASSIFICATION_TYPE":"U","NORAD_CAT_ID":35475,"ELEMENT_SET_NO":999,"REV_AT_EPOCH":67170,"BSTAR":0.0014901425,"MEAN_MOTION_DOT":9.454e-5,"MEAN_MOTION_DDOT":0},{"OBJECT_NAME":"COSMOS 2251 DEB","OBJECT_ID":"1993-036ALW","EPOCH":"2026-03-28T15:08:46.214880","MEAN_MOTION":14.78847401,"ECCENTRICITY":0.00149838,"INCLINATION":73.9762,"RA_OF_ASC_NODE":212.4668,"ARG_OF_PERICENTER":181.9211,"MEAN_ANOMALY":193.1092,"EPHEMERIS_TYPE":0,"CLASSIFICATION_TYPE":"U","NORAD_CAT_ID":35476,"ELEMENT_SET_NO":999,"REV_AT_EPOCH":89451,"BSTAR":0.0021491553,"MEAN_MOTION_DOT":0.00015856,"MEAN_MOTION_DDOT":0},{"OBJECT_NAME":"COSMOS 2251 DEB","OBJECT_ID":"1993-036ALX","EPOCH":"2026-03-22T12:09:08.530272","MEAN_MOTION":13.84391406,"ECCENTRICITY":0.02793063,"INCLINATION":73.9053,"RA_OF_ASC_NODE":9.0013,"ARG_OF_PERICENTER":355.0883,"MEAN_ANOMALY":4.7508,"EPHEMERIS_TYPE":0,"CLASSIFICATION_TYPE":"U","NORAD_CAT_ID":35580,"ELEMENT_SET_NO":999,"REV_AT_EPOCH":63637,"BSTAR":0.0025512666,"MEAN_MOTION_DOT":3.84e-5,"MEAN_MOTION_DDOT":0},{"OBJECT_NAME":"COSMOS 2251 DEB","OBJECT_ID":"1993-036AMA","EPOCH":"2026-03-27T20:24:13.320288","MEAN_MOTION":13.55611635,"ECCENTRICITY":0.03820649,"INCLINATION":73.9184,"RA_OF_ASC_NODE":41.6408,"ARG_OF_PERICENTER":46.3937,"MEAN_ANOMALY":316.8209,"EPHEMERIS_TYPE":0,"CLASSIFICATION_TYPE":"U","NORAD_CAT_ID":35583,"ELEMENT_SET_NO":999,"REV_AT_EPOCH":83836,"BSTAR":0.0013714415,"MEAN_MOTION_DOT":1.505e-5,"MEAN_MOTION_DDOT":0},{"OBJECT_NAME":"COSMOS 2251 DEB","OBJECT_ID":"1993-036AMC","EPOCH":"2026-03-28T05:35:03.642720","MEAN_MOTION":13.75649205,"ECCENTRICITY":0.03061395,"INCLINATION":73.9714,"RA_OF_ASC_NODE":172.2396,"ARG_OF_PERICENTER":62.61,"MEAN_ANOMALY":330.2127,"EPHEMERIS_TYPE":0,"CLASSIFICATION_TYPE":"U","NORAD_CAT_ID":35585,"ELEMENT_SET_NO":999,"REV_AT_EPOCH":65514,"BSTAR":0.00091302975,"MEAN_MOTION_DOT":1.22e-5,"MEAN_MOTION_DDOT":0},{"OBJECT_NAME":"COSMOS 2251 DEB","OBJECT_ID":"1993-036AMD","EPOCH":"2026-03-21T10:11:01.493376","MEAN_MOTION":13.52196967,"ECCENTRICITY":0.04030911,"INCLINATION":74.0175,"RA_OF_ASC_NODE":144.3741,"ARG_OF_PERICENTER":358.2689,"MEAN_ANOMALY":16.3668,"EPHEMERIS_TYPE":0,"CLASSIFICATION_TYPE":"U","NORAD_CAT_ID":35586,"ELEMENT_SET_NO":999,"REV_AT_EPOCH":61716,"BSTAR":0.00065076377,"MEAN_MOTION_DOT":6.93e-6,"MEAN_MOTION_DDOT":0},{"OBJECT_NAME":"COSMOS 2251 DEB","OBJECT_ID":"1993-036AME","EPOCH":"2026-03-26T01:50:30.600384","MEAN_MOTION":14.71868326,"ECCENTRICITY":0.01005287,"INCLINATION":74.0046,"RA_OF_ASC_NODE":217.0989,"ARG_OF_PERICENTER":17.8815,"MEAN_ANOMALY":342.5851,"EPHEMERIS_TYPE":0,"CLASSIFICATION_TYPE":"U","NORAD_CAT_ID":35587,"ELEMENT_SET_NO":999,"REV_AT_EPOCH":67866,"BSTAR":0.00017163775,"MEAN_MOTION_DOT":1.126e-5,"MEAN_MOTION_DDOT":0},{"OBJECT_NAME":"COSMOS 2251 DEB","OBJECT_ID":"1993-036AML","EPOCH":"2026-03-28T07:37:25.862016","MEAN_MOTION":14.26166544,"ECCENTRICITY":0.0099231,"INCLINATION":74.0826,"RA_OF_ASC_NODE":98.336,"ARG_OF_PERICENTER":78.8431,"MEAN_ANOMALY":282.3853,"EPHEMERIS_TYPE":0,"CLASSIFICATION_TYPE":"U","NORAD_CAT_ID":35593,"ELEMENT_SET_NO":999,"REV_AT_EPOCH":86570,"BSTAR":0.00063584,"MEAN_MOTION_DOT":1.579e-5,"MEAN_MOTION_DDOT":0},{"OBJECT_NAME":"COSMOS 2251 DEB","OBJECT_ID":"1993-036AMM","EPOCH":"2026-03-28T10:38:38.422464","MEAN_MOTION":14.91245711,"ECCENTRICITY":0.002829,"INCLINATION":73.8052,"RA_OF_ASC_NODE":252.1806,"ARG_OF_PERICENTER":340.1514,"MEAN_ANOMALY":19.8564,"EPHEMERIS_TYPE":0,"CLASSIFICATION_TYPE":"U","NORAD_CAT_ID":35594,"ELEMENT_SET_NO":999,"REV_AT_EPOCH":89759,"BSTAR":0.0014627295,"MEAN_MOTION_DOT":0.00014656,"MEAN_MOTION_DDOT":0},{"OBJECT_NAME":"COSMOS 2251 DEB","OBJECT_ID":"1993-036AMV","EPOCH":"2026-03-28T09:40:29.368416","MEAN_MOTION":15.40506836,"ECCENTRICITY":0.00771888,"INCLINATION":73.9942,"RA_OF_ASC_NODE":314.0228,"ARG_OF_PERICENTER":350.1406,"MEAN_ANOMALY":185.1878,"EPHEMERIS_TYPE":0,"CLASSIFICATION_TYPE":"U","NORAD_CAT_ID":35602,"ELEMENT_SET_NO":999,"REV_AT_EPOCH":91715,"BSTAR":0.00052075324,"MEAN_MOTION_DOT":0.00023518,"MEAN_MOTION_DDOT":0},{"OBJECT_NAME":"COSMOS 2251 DEB","OBJECT_ID":"1993-036AMZ","EPOCH":"2026-03-28T07:22:44.931936","MEAN_MOTION":13.41352229,"ECCENTRICITY":0.0454626,"INCLINATION":73.8087,"RA_OF_ASC_NODE":202.5247,"ARG_OF_PERICENTER":31.1811,"MEAN_ANOMALY":331.5426,"EPHEMERIS_TYPE":0,"CLASSIFICATION_TYPE":"U","NORAD_CAT_ID":35606,"ELEMENT_SET_NO":999,"REV_AT_EPOCH":62455,"BSTAR":0.00041523,"MEAN_MOTION_DOT":4.04e-6,"MEAN_MOTION_DDOT":0},{"OBJECT_NAME":"COSMOS 2251 DEB","OBJECT_ID":"1993-036ANE","EPOCH":"2026-03-28T02:30:47.575584","MEAN_MOTION":14.76348994,"ECCENTRICITY":0.00177846,"INCLINATION":74.0203,"RA_OF_ASC_NODE":333.3097,"ARG_OF_PERICENTER":26.3618,"MEAN_ANOMALY":333.8457,"EPHEMERIS_TYPE":0,"CLASSIFICATION_TYPE":"U","NORAD_CAT_ID":35611,"ELEMENT_SET_NO":999,"REV_AT_EPOCH":88843,"BSTAR":0.0017659573,"MEAN_MOTION_DOT":0.00012281,"MEAN_MOTION_DDOT":0},{"OBJECT_NAME":"COSMOS 2251 DEB","OBJECT_ID":"1993-036ANH","EPOCH":"2026-03-27T20:05:43.418112","MEAN_MOTION":14.68105142,"ECCENTRICITY":0.0076731,"INCLINATION":73.9567,"RA_OF_ASC_NODE":123.4939,"ARG_OF_PERICENTER":310.1374,"MEAN_ANOMALY":49.3089,"EPHEMERIS_TYPE":0,"CLASSIFICATION_TYPE":"U","NORAD_CAT_ID":35614,"ELEMENT_SET_NO":999,"REV_AT_EPOCH":89271,"BSTAR":0.00067437934,"MEAN_MOTION_DOT":4.018e-5,"MEAN_MOTION_DDOT":0}]
