COSMOS 2251 DEB         
1 35462U 93036ALG 26087.29022544  .00003540  00000+0  13265-2 0  9992
2 35462  74.0348  76.8365 0081948  87.4892 273.5636 14.30196864678893
COSMOS 2251 DEB         
1 35465U 93036ALK 26083.77913823  .00001211  00000+0  34869-3 0  9990
2 35465  73.9992   6.6601 0063675 144.7788 215.7603 14.44656146887153
COSMOS 2251 DEB         
1 35469U 93036ALP 26086.53713905  .00000293  00000+0  80453-4 0  9990
2 35469  74.0167 186.8683 0077892 315.0139  44.4727 14.49921360896302
COSMOS 2251 DEB         
1 35475U 93036ALV 26087.36247063  .00009454  00000+0  14901-2 0  9997
2 35475  74.0227 320.2905 0017290   9.8977 350.2532 14.72444805671708
COSMOS 2251 DEB         
1 35476U 93036ALW 26087.63109045  .00015856  00000+0  21492-2 0  9991
2 35476  73.9762 212.4668 0014983 181.9211 193.1092 14.78847401894514
COSMOS 2251 DEB         
1 35580U 93036ALX 26081.50634873  .00003840  00000+0  25513-2 0  9997
2 35580  73.9053   9.0013 0279306 355.0883   4.7508 13.84391406636370
COSMOS 2251 DEB         
1 35583U 93036AMA 26086.85015417  .00001505  00000+0  13714-2 0  9996
2 35583  73.9184  41.6408 0382064  46.3937 316.8209 13.55611635838369
COSMOS 2251 DEB         
1 35585U 93036AMC 26087.23268105  .00001220  00000+0  91303-3 0  9990
2 35585  73.9714 172.2396 0306139  62.6100 330.2127 13.75649205655147
COSMOS 2251 DEB         
1 35586U 93036AMD 26080.42432284  .00000693  00000+0  65076-3 0  9997
2 35586  74.0175 144.3741 0403091 358.2689  16.3668 13.52196967617165
COSMOS 2251 DEB         
1 35587U 93036AME 26085.07674306  .00001126  00000+0  17164-3 0  9994
2 35587  74.0046 217.0989 0100528  17.8815 342.5851 14.71868326678660
COSMOS 2251 DEB         
1 35593U 93036AML 26087.31766044  .00001579  00000+0  63584-3 0  9990
2 35593  74.0826  98.3360 0099231  78.8431 282.3853 14.26166544865704
COSMOS 2251 DEB         
1 35594U 93036AMM 26087.44350026  .00014656  00000+0  14627-2 0  9997
2 35594  73.8052 252.1806 0028290 340.1514  19.8564 14.91245711897592
COSMOS 2251 DEB         
1 35602U 93036AMV 26087.40311769  .00023518  00000+0  52075-3 0  9991
2 35602  73.9942 314.0228 0077188 350.1406 185.1878 15.40506836917151
COSMOS 2251 DEB         
1 35606U 93036AMZ 26087.30746449  .00000404  00000+0  41523-3 0  9996
2 35606  73.8087 202.5247 0454626  31.1811 331.5426 13.41352229624557
COSMOS 2251 DEB         
1 35611U 93036ANE 26087.10471731  .00012281  00000+0  17660-2 0  9999
2 35611  74.0203 333.3097 0017784  26.3618 333.8457 14.76348994888434
COSMOS 2251 DEB         
1 35614U 93036ANH 26086.83730808  .00004018  00000+0  67438-3 0  9992
2 35614  73.9567 123.4939 0076731 310.1374  49.3089 14.68105142892714
